{
    "links": {
        "self": "http://www.neowsapp.com/rest/v1/neo/3771798?api_key=iIulBulltgU6a56xZRHN4H3l9WmuAYTsLGpBGhQ2"
    },
    "id": "3771798",
    "neo_reference_id": "3771798",
    "name": "(2017 FE63)",
    "designation": "2017 FE63",
    "nasa_jpl_url": "http://ssd.jpl.nasa.gov/sbdb.cgi?sstr=3771798",
    "absolute_magnitude_h": 23.4,
    "estimated_diameter": {
        "kilometers": {
            "estimated_diameter_min": 0.0555334912,
            "estimated_diameter_max": 0.1241766613
        },
        "meters": {
            "estimated_diameter_min": 55.5334911581,
            "estimated_diameter_max": 124.1766612574
        },
        "miles": {
            "estimated_diameter_min": 0.0345069009,
            "estimated_diameter_max": 0.0771597762
        },
        "feet": {
            "estimated_diameter_min": 182.1964991311,
            "estimated_diameter_max": 407.4037573197
        }
    },
    "is_potentially_hazardous_asteroid": false,
    "close_approach_data": [
        {
            "close_approach_date": "2017-03-18",
            "close_approach_date_full": "2017-Mar-18 17:21",
            "epoch_date_close_approach": 1489857660000,
            "relative_velocity": {
                "kilometers_per_second": "14.0014066835",
                "kilometers_per_hour": "50405.0640604812",
                "miles_per_hour": "31319.7466102473"
            },
            "miss_distance": {
                "astronomical": "0.2096747887",
                "lunar": "81.5634928043",
                "kilometers": "31366901.782220069",
                "miles": "19490488.9814881922"
            },
            "orbiting_body": "Earth"
        }
    ],
    "orbital_data": {
        "orbit_id": "3",
        "orbit_determination_date": "2017-04-06 08:19:18",
        "first_observation_date": "2017-03-18",
        "last_observation_date": "2017-03-22",
        "data_arc_in_days": 4,
        "observations_used": 14,
        "orbit_uncertainty": "8",
        "minimum_orbit_intersection": ".20576",
        "jupiter_tisserand_invariant": "4.690",
        "epoch_osculation": "2457834.5",
        "eccentricity": ".1815821804123272",
        "semi_major_axis": "1.373186428811152",
        "inclination": "26.90456184208161",
        "ascending_node_longitude": "171.5872786641548",
        "orbital_period": "587.7500582516683",
        "perihelion_distance": "1.123840242955006",
        "perihelion_argument": "58.21706253409548",
        "aphelion_distance": "1.622532614667298",
        "perihelion_time": "2457892.850284221475",
        "mean_anomaly": "324.260144214675",
        "mean_motion": ".6125052561812795",
        "equinox": "J2000",
        "orbit_class": {
            "orbit_class_type": "AMO",
            "orbit_class_description": "Near-Earth asteroid orbits similar to that of 1221 Amor",
            "orbit_class_range": "1.017 AU < q (perihelion) < 1.3 AU"
        }
    },
    "is_sentry_object": false
}